[{"OBJECT_NAME":"STARLINK-31294","OBJECT_ID":"2024-027U","EPOCH":"2026-03-09T22:48:12.117600","MEAN_MOTION":15.30191689,"ECCENTRICITY":9.04e-5,"INCLINATION":53.1584,"RA_OF_ASC_NODE":308.7352,"ARG_OF_PERICENTER":102.6969,"MEAN_ANOMALY":257.4133,"EPHEMERIS_TYPE":0,"CLASSIFICATION_TYPE":"U","NORAD_CAT_ID":58949,"ELEMENT_SET_NO":999,"REV_AT_EPOCH":11736,"BSTAR":6.5390408e-5,"MEAN_MOTION_DOT":1.578e-5,"MEAN_MOTION_DDOT":0},{"OBJECT_NAME":"YAOGAN-43 01G","OBJECT_ID":"2024-148G","EPOCH":"2026-03-09T10:38:37.087584","MEAN_MOTION":15.28332833,"ECCENTRICITY":0.00073829,"INCLINATION":35.0006,"RA_OF_ASC_NODE":62.0013,"ARG_OF_PERICENTER":306.3543,"MEAN_ANOMALY":53.6492,"EPHEMERIS_TYPE":0,"CLASSIFICATION_TYPE":"U","NORAD_CAT_ID":60464,"ELEMENT_SET_NO":999,"REV_AT_EPOCH":8700,"BSTAR":0.00035872736,"MEAN_MOTION_DOT":0.00010133,"MEAN_MOTION_DDOT":0}]
